{"type": "FeatureCollection", "features": [ {"type": "Feature", "properties": {"norad_id": 65304, "name": "DRAGON CRS-33", "group": "stations", "lat": -26.827847621556636, "lon": 125.61972527581257, "alt_km": 421.65373549458127, "timestamp": "2025-12-11T08:58:25.875322+00:00", "meta": {"OBJECT_NAME": "DRAGON CRS-33", "OBJECT_ID": "2025-186A", "EPOCH": "2025-12-10T22:17:24.112320", "MEAN_MOTION": 15.49489378, "ECCENTRICITY": 0.00033509, "INCLINATION": 51.6309, "RA_OF_ASC_NODE": 151.4463, "ARG_OF_PERICENTER": 232.8214, "MEAN_ANOMALY": 127.2469, "EPHEMERIS_TYPE": 0, "CLASSIFICATION_TYPE": "U", "NORAD_CAT_ID": 65304, "ELEMENT_SET_NO": 999, "REV_AT_EPOCH": 11, "BSTAR": 0.00026508679, "MEAN_MOTION_DOT": 0.00014434, "MEAN_MOTION_DDOT": 0}, "tle": {"line1": "1 65304U 25186A   25344.92875130  .00014434  00000+0  26509-3 0  9993", "line2": "2 65304  51.6309 151.4463 0003350 232.8214 127.2469 15.49489378   112"}}, "geometry": {"type": "Point", "coordinates": [125.61972527581257, -26.827847621556636]}}, {"type": "Feature", "properties": {"norad_id": 65586, "name": "PROGRESS-MS 32", "group": "stations", "lat": -26.827847111688122, "lon": 125.61972582885477, "alt_km": 421.65373548656044, "timestamp": "2025-12-11T08:58:25.875333+00:00", "meta": {"OBJECT_NAME": "PROGRESS-MS 32", "OBJECT_ID": "2025-204A", "EPOCH": "2025-12-10T22:17:24.112320", "MEAN_MOTION": 15.49489378, "ECCENTRICITY": 0.00033509, "INCLINATION": 51.6309, "RA_OF_ASC_NODE": 151.4463, "ARG_OF_PERICENTER": 232.8214, "MEAN_ANOMALY": 127.2469, "EPHEMERIS_TYPE": 0, "CLASSIFICATION_TYPE": "U", "NORAD_CAT_ID": 65586, "ELEMENT_SET_NO": 999, "REV_AT_EPOCH": 27, "BSTAR": 0.00026508679, "MEAN_MOTION_DOT": 0.00014434, "MEAN_MOTION_DDOT": 0}, "tle": {"line1": "1 65586U 25204A   25344.92875130  .00014434  00000+0  26509-3 0  9996", "line2": "2 65586  51.6309 151.4463 0003350 232.8214 127.2469 15.49489378   271"}}, "geometry": {"type": "Point", "coordinates": [125.61972582885477, -26.827847111688122]}}, {"type": "Feature", "properties": {"norad_id": 65616, "name": "CYGNUS NG-23", "group": "stations", "lat": -26.82784655546897, "lon": 125.6197264321724, "alt_km": 421.65373547781746, "timestamp": "2025-12-11T08:58:25.875345+00:00", "meta": {"OBJECT_NAME": "CYGNUS NG-23", "OBJECT_ID": "2025-208A", "EPOCH": "2025-12-10T22:17:24.112320", "MEAN_MOTION": 15.49489378, "ECCENTRICITY": 0.00033509, "INCLINATION": 51.6309, "RA_OF_ASC_NODE": 151.4463, "ARG_OF_PERICENTER": 232.8214, "MEAN_ANOMALY": 127.2469, "EPHEMERIS_TYPE": 0, "CLASSIFICATION_TYPE": "U", "NORAD_CAT_ID": 65616, "ELEMENT_SET_NO": 999, "REV_AT_EPOCH": 22, "BSTAR": 0.00026508679, "MEAN_MOTION_DOT": 0.00014434, "MEAN_MOTION_DDOT": 0}, "tle": {"line1": "1 65616U 25208A   25344.92875130  .00014434  00000+0  26509-3 0  9994", "line2": "2 65616  51.6309 151.4463 0003350 232.8214 127.2469 15.49489378   220"}}, "geometry": {"type": "Point", "coordinates": [125.6197264321724, -26.82784655546897]}}, {"type": "Feature", "properties": {"norad_id": 65729, "name": "DRAGONFLY", "group": "stations", "lat": -11.096577930700446, "lon": -28.302821676338233, "alt_km": 356.04804813500505, "timestamp": "2025-12-11T08:58:25.875355+00:00", "meta": {"OBJECT_NAME": "DRAGONFLY", "OBJECT_ID": "1998-067XH", "EPOCH": "2025-12-11T03:34:16.542048", "MEAN_MOTION": 15.71180147, "ECCENTRICITY": 0.0006575, "INCLINATION": 51.6246, "RA_OF_ASC_NODE": 143.9077, "ARG_OF_PERICENTER": 266.7325, "MEAN_ANOMALY": 93.2921, "EPHEMERIS_TYPE": 0, "CLASSIFICATION_TYPE": "U", "NORAD_CAT_ID": 65729, "ELEMENT_SET_NO": 999, "REV_AT_EPOCH": 1291, "BSTAR": 0.0016713, "MEAN_MOTION_DOT": 0.00221047, "MEAN_MOTION_DDOT": 0}, "tle": {"line1": "1 65729U 98067XH  25345.14880257  .00221047  00000+0  16713-2 0  9998", "line2": "2 65729  51.6246 143.9077 0006575 266.7325  93.2921 15.71180147 12914"}}, "geometry": {"type": "Point", "coordinates": [-28.302821676338233, -11.096577930700446]}}, {"type": "Feature", "properties": {"norad_id": 65731, "name": "1998-067XK", "group": "stations", "lat": -46.67067547319814, "lon": 21.296547946945935, "alt_km": 373.2944303108361, "timestamp": "2025-12-11T08:58:25.875366+00:00", "meta": {"OBJECT_NAME": "1998-067XK", "OBJECT_ID": "1998-067XK", "EPOCH": "2025-12-10T11:59:54.530016", "MEAN_MOTION": 15.65134348, "ECCENTRICITY": 0.00051808, "INCLINATION": 51.6281, "RA_OF_ASC_NODE": 148.5918, "ARG_OF_PERICENTER": 231.8122, "MEAN_ANOMALY": 128.2407, "EPHEMERIS_TYPE": 0, "CLASSIFICATION_TYPE": "U", "NORAD_CAT_ID": 65731, "ELEMENT_SET_NO": 999, "REV_AT_EPOCH": 1279, "BSTAR": 0.0012258975, "MEAN_MOTION_DOT": 0.00124892, "MEAN_MOTION_DDOT": 0}, "tle": {"line1": "1 65731U 98067XK  25344.49993669  .00124892  00000+0  12259-2 0  9991", "line2": "2 65731  51.6281 148.5918 0005180 231.8122 128.2407 15.65134348 12799"}}, "geometry": {"type": "Point", "coordinates": [21.296547946945935, -46.67067547319814]}}, {"type": "Feature", "properties": {"norad_id": 65732, "name": "RSP-03", "group": "stations", "lat": -20.576894642783447, "lon": -19.206823237124947, "alt_km": 363.9547351104293, "timestamp": "2025-12-11T08:58:25.875379+00:00", "meta": {"OBJECT_NAME": "RSP-03", "OBJECT_ID": "1998-067XL", "EPOCH": "2025-12-10T19:51:35.371008", "MEAN_MOTION": 15.67939317, "ECCENTRICITY": 0.00058921, "INCLINATION": 51.6264, "RA_OF_ASC_NODE": 146.2697, "ARG_OF_PERICENTER": 237.5222, "MEAN_ANOMALY": 122.5205, "EPHEMERIS_TYPE": 0, "CLASSIFICATION_TYPE": "U", "NORAD_CAT_ID": 65732, "ELEMENT_SET_NO": 999, "REV_AT_EPOCH": 1286, "BSTAR": 0.0014115641, "MEAN_MOTION_DOT": 0.00161929, "MEAN_MOTION_DDOT": 0}, "tle": {"line1": "1 65732U 98067XL  25344.82749272  .00161929  00000+0  14116-2 0  9994", "line2": "2 65732  51.6264 146.2697 0005892 237.5222 122.5205 15.67939317 12866"}}, "geometry": {"type": "Point", "coordinates": [-19.206823237124947, -20.576894642783447]}}, {"type": "Feature", "properties": {"norad_id": 65733, "name": "GHS-01", "group": "stations", "lat": 51.4146658539051, "lon": -121.0449848386818, "alt_km": 344.9906477378918, "timestamp": "2025-12-11T08:58:25.875389+00:00", "meta": {"OBJECT_NAME": "GHS-01", "OBJECT_ID": "1998-067XM", "EPOCH": "2025-12-11T04:00:14.107680", "MEAN_MOTION": 15.73916996, "ECCENTRICITY": 0.0006984, "INCLINATION": 51.6283, "RA_OF_ASC_NODE": 143.2841, "ARG_OF_PERICENTER": 269.574, "MEAN_ANOMALY": 90.4459, "EPHEMERIS_TYPE": 0, "CLASSIFICATION_TYPE": "U", "NORAD_CAT_ID": 65733, "ELEMENT_SET_NO": 999, "REV_AT_EPOCH": 1293, "BSTAR": 0.0018349, "MEAN_MOTION_DOT": 0.0027452, "MEAN_MOTION_DDOT": 0}, "tle": {"line1": "1 65733U 98067XM  25345.16682995  .00274520  00000+0  18349-2 0  9995", "line2": "2 65733  51.6283 143.2841 0006984 269.5740  90.4459 15.73916996 12936"}}, "geometry": {"type": "Point", "coordinates": [-121.0449848386818, 51.4146658539051]}}, {"type": "Feature", "properties": {"norad_id": 65941, "name": "YOTSUBA-KULOVER", "group": "stations", "lat": 30.087789960403743, "lon": 174.16820111385263, "alt_km": 387.19551634007166, "timestamp": "2025-12-11T08:58:25.875402+00:00", "meta": {"OBJECT_NAME": "YOTSUBA-KULOVER", "OBJECT_ID": "1998-067XN", "EPOCH": "2025-12-10T11:16:03.070272", "MEAN_MOTION": 15.59021065, "ECCENTRICITY": 0.00015507, "INCLINATION": 51.6286, "RA_OF_ASC_NODE": 151.3857, "ARG_OF_PERICENTER": 232.2961, "MEAN_ANOMALY": 127.7891, "EPHEMERIS_TYPE": 0, "CLASSIFICATION_TYPE": "U", "NORAD_CAT_ID": 65941, "ELEMENT_SET_NO": 999, "REV_AT_EPOCH": 950, "BSTAR": 0.0011321165, "MEAN_MOTION_DOT": 0.00090413, "MEAN_MOTION_DDOT": 0}, "tle": {"line1": "1 65941U 98067XN  25344.46947998  .00090413  00000+0  11321-2 0  9995", "line2": "2 65941  51.6286 151.3857 0001550 232.2961 127.7891 15.59021065  9504"}}, "geometry": {"type": "Point", "coordinates": [174.16820111385263, 30.087789960403743]}}, {"type": "Feature", "properties": {"norad_id": 65942, "name": "BOTAN", "group": "stations", "lat": -6.440658471783658, "lon": 141.05867657389902, "alt_km": 383.4891864303381, "timestamp": "2025-12-11T08:58:25.875412+00:00", "meta": {"OBJECT_NAME": "BOTAN", "OBJECT_ID": "1998-067XP", "EPOCH": "2025-12-10T11:31:01.401312", "MEAN_MOTION": 15.62212709, "ECCENTRICITY": 0.00033822, "INCLINATION": 51.6281, "RA_OF_ASC_NODE": 150.7055, "ARG_OF_PERICENTER": 220.3642, "MEAN_ANOMALY": 139.7102, "EPHEMERIS_TYPE": 0, "CLASSIFICATION_TYPE": "U", "NORAD_CAT_ID": 65942, "ELEMENT_SET_NO": 999, "REV_AT_EPOCH": 951, "BSTAR": 0.0015087728, "MEAN_MOTION_DOT": 0.00137252, "MEAN_MOTION_DDOT": 0}, "tle": {"line1": "1 65942U 98067XP  25344.47987733  .00137252  00000+0  15088-2 0  9995", "line2": "2 65942  51.6281 150.7055 0003382 220.3642 139.7102 15.62212709  9512"}}, "geometry": {"type": "Point", "coordinates": [141.05867657389902, -6.440658471783658]}}, {"type": "Feature", "properties": {"norad_id": 65943, "name": "E-KAGAKU-1", "group": "stations", "lat": 30.145145928108875, "lon": 174.2290006917189, "alt_km": 389.2914732507488, "timestamp": "2025-12-11T08:58:25.875423+00:00", "meta": {"OBJECT_NAME": "E-KAGAKU-1", "OBJECT_ID": "1998-067XQ", "EPOCH": "2025-12-10T06:39:08.237952", "MEAN_MOTION": 15.5900432, "ECCENTRICITY": 0.00052507, "INCLINATION": 51.6298, "RA_OF_ASC_NODE": 152.3458, "ARG_OF_PERICENTER": 191.2269, "MEAN_ANOMALY": 168.8608, "EPHEMERIS_TYPE": 0, "CLASSIFICATION_TYPE": "U", "NORAD_CAT_ID": 65943, "ELEMENT_SET_NO": 999, "REV_AT_EPOCH": 947, "BSTAR": 0.0012588803, "MEAN_MOTION_DOT": 0.00100705, "MEAN_MOTION_DDOT": 0}, "tle": {"line1": "1 65943U 98067XQ  25344.27717868  .00100705  00000+0  12589-2 0  9990", "line2": "2 65943  51.6298 152.3458 0005250 191.2269 168.8608 15.59004320  9476"}}, "geometry": {"type": "Point", "coordinates": [174.2290006917189, 30.145145928108875]}}]}